start=new Date('2021-09-29T00:00:00.000Z').valueOf();
sats=[{"OBJECT_TYPE":"PAYLOAD","SITE":"AFETR","FILE":"3132662","BSTAR":"-0.00002445700000","TIME_SYSTEM":"UTC","OBJECT_ID":"2021-009X","ELEMENT_SET_NO":"999","MEAN_MOTION":"15.06387192","COUNTRY_CODE":"US","CLASSIFICATION_TYPE":"U","EPOCH":"2021-09-28T06:23:15.952704","LAUNCH_DATE":"2021-02-04","ECCENTRICITY":"0.00095890","MEAN_MOTION_DOT":"-0.00000650","PERIOD":"95.593","REV_AT_EPOCH":"3618","CENTER_NAME":"EARTH","GP_ID":"185716042","RCS_SIZE":"LARGE","APOAPSIS":"553.894","NORAD_CAT_ID":"47569","PERIAPSIS":"540.612","DECAY_DATE":null,"TLE_LINE1":"1 47569U 21009X   21271.26615686 -.00000650  00000-0 -24457-4 0  9995","TLE_LINE2":"2 47569  53.0658 104.4123 0009589 123.3896 236.8012 15.06387192 36180","MEAN_ELEMENT_THEORY":"SGP4","INCLINATION":"53.0658","SEMIMAJOR_AXIS":"6925.388","MEAN_MOTION_DDOT":"0.0000000000000","OBJECT_NAME":"STARLINK-1968","EPHEMERIS_TYPE":"0","MEAN_ANOMALY":"236.8012","ARG_OF_PERICENTER":"123.3896","REF_FRAME":"TEME","RA_OF_ASC_NODE":"104.4123"},{"ARG_OF_PERICENTER":"90.1647","RA_OF_ASC_NODE":"88.1126","REF_FRAME":"TEME","OBJECT_NAME":"STARLINK-1969","MEAN_MOTION_DDOT":"0.0000000000000","SEMIMAJOR_AXIS":"6925.372","EPHEMERIS_TYPE":"0","MEAN_ANOMALY":"269.9555","TLE_LINE1":"1 47570U 21009Y   21271.56519171  .00001225  00000-0  10115-3 0  9994","DECAY_DATE":null,"MEAN_ELEMENT_THEORY":"SGP4","TLE_LINE2":"2 47570  53.0557  88.1126 0001862  90.1647 269.9555 15.06392280 36433","INCLINATION":"53.0557","NORAD_CAT_ID":"47570","PERIAPSIS":"545.948","CENTER_NAME":"EARTH","RCS_SIZE":"LARGE","GP_ID":"185716292","APOAPSIS":"548.527","LAUNCH_DATE":"2021-02-04","EPOCH":"2021-09-28T13:33:52.563744","CLASSIFICATION_TYPE":"U","ECCENTRICITY":"0.00018620","REV_AT_EPOCH":"3643","PERIOD":"95.593","MEAN_MOTION_DOT":"0.00001225","OBJECT_ID":"2021-009Y","ELEMENT_SET_NO":"999","COUNTRY_CODE":"US","MEAN_MOTION":"15.06392280","OBJECT_TYPE":"PAYLOAD","SITE":"AFETR","TIME_SYSTEM":"UTC","FILE":"3132662","BSTAR":"0.00010115000000"},{"RA_OF_ASC_NODE":"97.1650","REF_FRAME":"TEME","ARG_OF_PERICENTER":"81.7286","MEAN_ANOMALY":"278.3983","EPHEMERIS_TYPE":"0","SEMIMAJOR_AXIS":"6925.335","OBJECT_NAME":"STARLINK-1970","MEAN_MOTION_DDOT":"0.0000000000000","INCLINATION":"53.0554","TLE_LINE2":"2 47571  53.0554  97.1650 0002477  81.7286 278.3983 15.06404399 36929","MEAN_ELEMENT_THEORY":"SGP4","DECAY_DATE":null,"TLE_LINE1":"1 47571U 21009Z   21271.77435062  .00001255  00000-0  10316-3 0  9990","PERIAPSIS":"545.485","NORAD_CAT_ID":"47571","APOAPSIS":"548.915","GP_ID":"185725870","RCS_SIZE":"LARGE","CENTER_NAME":"EARTH","MEAN_MOTION_DOT":"0.00001255","PERIOD":"95.592","REV_AT_EPOCH":"3692","ECCENTRICITY":"0.00024770","CLASSIFICATION_TYPE":"U","EPOCH":"2021-09-28T18:35:03.893568","LAUNCH_DATE":"2021-02-04","MEAN_MOTION":"15.06404399","COUNTRY_CODE":"US","OBJECT_ID":"2021-009Z","ELEMENT_SET_NO":"999","FILE":"3133042","BSTAR":"0.00010316000000","TIME_SYSTEM":"UTC","SITE":"AFETR","OBJECT_TYPE":"PAYLOAD"},{"NORAD_CAT_ID":"47572","PERIAPSIS":"545.860","TLE_LINE2":"2 47572  53.0546  97.5332 0002003  88.7686 271.3533 15.06388970 36917","MEAN_ELEMENT_THEORY":"SGP4","DECAY_DATE":null,"TLE_LINE1":"1 47572U 21009AA  21271.68958344 -.00000336  00000-0 -36706-5 0  9998","INCLINATION":"53.0546","EPHEMERIS_TYPE":"0","SEMIMAJOR_AXIS":"6925.382","OBJECT_NAME":"STARLINK-1971","MEAN_MOTION_DDOT":"0.0000000000000","MEAN_ANOMALY":"271.3533","REF_FRAME":"TEME","RA_OF_ASC_NODE":"97.5332","ARG_OF_PERICENTER":"88.7686","OBJECT_TYPE":"PAYLOAD","FILE":"3133042","BSTAR":"-0.00000367060000","TIME_SYSTEM":"UTC","SITE":"AFETR","COUNTRY_CODE":"US","MEAN_MOTION":"15.06388970","ELEMENT_SET_NO":"999","OBJECT_ID":"2021-009AA","ECCENTRICITY":"0.00020030","EPOCH":"2021-09-28T16:33:00.009216","CLASSIFICATION_TYPE":"U","LAUNCH_DATE":"2021-02-04","MEAN_MOTION_DOT":"-0.00000336","PERIOD":"95.593","REV_AT_EPOCH":"3691","GP_ID":"185725950","RCS_SIZE":"LARGE","CENTER_NAME":"EARTH","APOAPSIS":"548.635"},{"REF_FRAME":"TEME","RA_OF_ASC_NODE":"98.2442","ARG_OF_PERICENTER":"85.4290","EPHEMERIS_TYPE":"0","SEMIMAJOR_AXIS":"6925.370","MEAN_MOTION_DDOT":"0.0000000000000","OBJECT_NAME":"STARLINK-1975","MEAN_ANOMALY":"274.6943","TLE_LINE2":"2 47573  53.0510  98.2442 0002138  85.4290 274.6943 15.06393100 36285","MEAN_ELEMENT_THEORY":"SGP4","DECAY_DATE":null,"TLE_LINE1":"1 47573U 21009AB  21271.53477784 -.00000646  00000-0 -24452-4 0  9995","INCLINATION":"53.0510","NORAD_CAT_ID":"47573","PERIAPSIS":"545.754","GP_ID":"185715542","RCS_SIZE":"LARGE","CENTER_NAME":"EARTH","APOAPSIS":"548.715","ECCENTRICITY":"0.00021380","CLASSIFICATION_TYPE":"U","EPOCH":"2021-09-28T12:50:04.805376","LAUNCH_DATE":"2021-02-04","PERIOD":"95.593","MEAN_MOTION_DOT":"-0.00000646","REV_AT_EPOCH":"3628","COUNTRY_CODE":"US","MEAN_MOTION":"15.06393100","ELEMENT_SET_NO":"999","OBJECT_ID":"2021-009AB","OBJECT_TYPE":"PAYLOAD","FILE":"3132662","BSTAR":"-0.00002445200000","TIME_SYSTEM":"UTC","SITE":"AFETR"},{"INCLINATION":"53.0550","TLE_LINE1":"1 47574U 21009AC  21271.21870185 -.00000492  00000-0 -14129-4 0  9992","DECAY_DATE":null,"MEAN_ELEMENT_THEORY":"SGP4","TLE_LINE2":"2 47574  53.0550 129.6501 0001846  81.8356 278.2842 15.06400424 35817","PERIAPSIS":"545.934","NORAD_CAT_ID":"47574","ARG_OF_PERICENTER":"81.8356","RA_OF_ASC_NODE":"129.6501","REF_FRAME":"TEME","MEAN_ANOMALY":"278.2842","OBJECT_NAME":"STARLINK-1976","MEAN_MOTION_DDOT":"0.0000000000000","SEMIMAJOR_AXIS":"6925.347","EPHEMERIS_TYPE":"0","OBJECT_ID":"2021-009AC","ELEMENT_SET_NO":"999","COUNTRY_CODE":"US","MEAN_MOTION":"15.06400424","SITE":"AFETR","TIME_SYSTEM":"UTC","FILE":"3132662","BSTAR":"-0.00001412900000","OBJECT_TYPE":"PAYLOAD","APOAPSIS":"548.491","CENTER_NAME":"EARTH","RCS_SIZE":"LARGE","GP_ID":"185715792","REV_AT_EPOCH":"3581","PERIOD":"95.592","MEAN_MOTION_DOT":"-0.00000492","LAUNCH_DATE":"2021-02-04","CLASSIFICATION_TYPE":"U","EPOCH":"2021-09-28T05:14:55.839840","ECCENTRICITY":"0.00018460"},{"OBJECT_ID":"2021-009AD","ELEMENT_SET_NO":"999","MEAN_MOTION":"15.06384078","COUNTRY_CODE":"US","SITE":"AFETR","FILE":"3132662","BSTAR":"-0.00007422100000","TIME_SYSTEM":"UTC","OBJECT_TYPE":"PAYLOAD","APOAPSIS":"548.695","CENTER_NAME":"EARTH","GP_ID":"185716541","RCS_SIZE":"LARGE","PERIOD":"95.593","MEAN_MOTION_DOT":"-0.00001387","REV_AT_EPOCH":"3583","EPOCH":"2021-09-28T08:10:07.059072","CLASSIFICATION_TYPE":"U","LAUNCH_DATE":"2021-02-04","ECCENTRICITY":"0.00020680","INCLINATION":"53.0543","DECAY_DATE":null,"TLE_LINE1":"1 47575U 21009AD  21271.34035948 -.00001387  00000-0 -74221-4 0  9990","TLE_LINE2":"2 47575  53.0543 129.1097 0002068  82.5219 277.6005 15.06384078 35830","MEAN_ELEMENT_THEORY":"SGP4","PERIAPSIS":"545.830","NORAD_CAT_ID":"47575","ARG_OF_PERICENTER":"82.5219","RA_OF_ASC_NODE":"129.1097","REF_FRAME":"TEME","MEAN_ANOMALY":"277.6005","SEMIMAJOR_AXIS":"6925.397","MEAN_MOTION_DDOT":"0.0000000000000","OBJECT_NAME":"STARLINK-1977","EPHEMERIS_TYPE":"0"},{"OBJECT_TYPE":"PAYLOAD","SITE":"AFETR","FILE":"3132662","BSTAR":"0.00010081000000","TIME_SYSTEM":"UTC","ELEMENT_SET_NO":"999","OBJECT_ID":"2021-009AE","COUNTRY_CODE":"US","MEAN_MOTION":"15.06378383","EPOCH":"2021-09-28T13:44:29.199552","CLASSIFICATION_TYPE":"U","LAUNCH_DATE":"2021-02-04","ECCENTRICITY":"0.00018280","PERIOD":"95.594","MEAN_MOTION_DOT":"0.00001219","REV_AT_EPOCH":"3643","CENTER_NAME":"EARTH","GP_ID":"185717294","RCS_SIZE":"LARGE","APOAPSIS":"548.546","NORAD_CAT_ID":"47576","PERIAPSIS":"546.014","DECAY_DATE":null,"TLE_LINE1":"1 47576U 21009AE  21271.57256018  .00001219  00000-0  10081-3 0  9994","TLE_LINE2":"2 47576  53.0570  88.0830 0001828  98.1162 262.0035 15.06378383 36432","MEAN_ELEMENT_THEORY":"SGP4","INCLINATION":"53.0570","SEMIMAJOR_AXIS":"6925.415","OBJECT_NAME":"STARLINK-1978","MEAN_MOTION_DDOT":"0.0000000000000","EPHEMERIS_TYPE":"0","MEAN_ANOMALY":"262.0035","ARG_OF_PERICENTER":"98.1162","RA_OF_ASC_NODE":"88.0830","REF_FRAME":"TEME"},{"INCLINATION":"53.0574","MEAN_ELEMENT_THEORY":"SGP4","TLE_LINE2":"2 47577  53.0574 102.2940 0002264  84.1052 276.0195 15.06392204 36852","TLE_LINE1":"1 47577U 21009AF  21271.74625834 -.00000761  00000-0 -32157-4 0  9992","DECAY_DATE":null,"PERIAPSIS":"545.670","NORAD_CAT_ID":"47577","REF_FRAME":"TEME","RA_OF_ASC_NODE":"102.2940","ARG_OF_PERICENTER":"84.1052","MEAN_ANOMALY":"276.0195","EPHEMERIS_TYPE":"0","MEAN_MOTION_DDOT":"0.0000000000000","OBJECT_NAME":"STARLINK-1979","SEMIMAJOR_AXIS":"6925.372","COUNTRY_CODE":"US","MEAN_MOTION":"15.06392204","ELEMENT_SET_NO":"999","OBJECT_ID":"2021-009AF","TIME_SYSTEM":"UTC","FILE":"3133042","BSTAR":"-0.00003215700000","SITE":"AFETR","OBJECT_TYPE":"PAYLOAD","APOAPSIS":"548.805","RCS_SIZE":"LARGE","GP_ID":"185725868","CENTER_NAME":"EARTH","REV_AT_EPOCH":"3685","PERIOD":"95.593","MEAN_MOTION_DOT":"-0.00000761","ECCENTRICITY":"0.00022640","LAUNCH_DATE":"2021-02-04","EPOCH":"2021-09-28T17:54:36.720576","CLASSIFICATION_TYPE":"U"},{"MEAN_ANOMALY":"277.7605","EPHEMERIS_TYPE":"0","OBJECT_NAME":"STARLINK-1980","MEAN_MOTION_DDOT":"0.0000000000000","SEMIMAJOR_AXIS":"6925.323","RA_OF_ASC_NODE":"109.3964","REF_FRAME":"TEME","ARG_OF_PERICENTER":"82.3633","PERIAPSIS":"545.672","NORAD_CAT_ID":"47578","INCLINATION":"53.0542","MEAN_ELEMENT_THEORY":"SGP4","TLE_LINE2":"2 47578  53.0542 109.3964 0002190  82.3633 277.7605 15.06408271 36109","TLE_LINE1":"1 47578U 21009AG  21271.27583453 -.00000608  00000-0 -21874-4 0  9995","DECAY_DATE":null,"REV_AT_EPOCH":"3610","PERIOD":"95.592","MEAN_MOTION_DOT":"-0.00000608","ECCENTRICITY":"0.00021900","LAUNCH_DATE":"2021-02-04","EPOCH":"2021-09-28T06:37:12.103392","CLASSIFICATION_TYPE":"U","APOAPSIS":"548.705","RCS_SIZE":"LARGE","GP_ID":"185716293","CENTER_NAME":"EARTH","TIME_SYSTEM":"UTC","BSTAR":"-0.00002187400000","FILE":"3132662","SITE":"AFETR","OBJECT_TYPE":"PAYLOAD","COUNTRY_CODE":"US","MEAN_MOTION":"15.06408271","ELEMENT_SET_NO":"999","OBJECT_ID":"2021-009AG"}];
